OBJECT_NAME,OBJECT_ID,EPOCH,MEAN_MOTION,ECCENTRICITY,INCLINATION,RA_OF_ASC_NODE,ARG_OF_PERICENTER,MEAN_ANOMALY,EPHEMERIS_TYPE,CLASSIFICATION_TYPE,NORAD_CAT_ID,ELEMENT_SET_NO,REV_AT_EPOCH,BSTAR,MEAN_MOTION_DOT,MEAN_MOTION_DDOT
STARLINK-37406,2026-114T,2026-06-10T13:07:33.297888,15.80948381,.00013065,53.1584,235.3832,64.2086,295.9072,0,U,69199,999,372,.10294715E-2,.20818E-2,0
STARLINK-37761,2026-114U,2026-06-10T13:06:28.602432,15.80905584,.00012996,53.1584,235.3780,38.8735,321.2381,0,U,69200,999,372,.7080839E-3,.14158E-2,0
STARLINK-37754,2026-114V,2026-06-10T13:05:07.224864,15.80894697,.0000943,53.1584,235.3718,90.1411,269.9719,0,U,69201,999,372,.63646891E-3,.126907E-2,0
STARLINK-37649,2026-114W,2026-06-10T13:04:19.223616,15.80893219,.00016587,53.1584,235.3682,74.8712,285.2494,0,U,69202,999,372,.59055837E-3,.117569E-2,0
STARLINK-37604,2026-114X,2026-06-10T13:03:14.349312,15.80905837,.00013462,53.1582,235.3630,71.2408,288.8761,0,U,69203,999,372,.8280921E-3,.166173E-2,0
STARLINK-37669,2026-114Y,2026-06-10T13:02:09.552768,15.80908930,.00014428,53.1583,235.3575,72.9281,287.1900,0,U,69204,999,372,.74709224E-3,.149582E-2,0
STARLINK-37691,2026-114Z,2026-06-10T14:00:01.999872,15.78057773,.0001268,53.1595,235.1888,74.4686,139.2740,0,U,69205,999,375,-.27617588E-3,-.48356E-3,0
STARLINK-37671,2026-114AA,2026-06-10T11:28:57.602208,15.80929481,.00013181,53.1583,235.6655,67.0035,293.1127,0,U,69206,999,371,.87408286E-3,.175831E-2,0
STARLINK-37647,2026-114AB,2026-06-10T11:30:02.011680,15.80948248,.00011779,53.1584,235.6700,58.6967,301.4171,0,U,69207,999,371,.10322846E-2,.208764E-2,0
STARLINK-37562,2026-114AC,2026-06-10T14:29:31.670592,15.78678100,.0003109,53.1584,235.0223,11.8122,348.2973,0,U,69208,999,373,-.56676195E-2,-.911894E-2,0
STARLINK-37682,2026-114AD,2026-06-10T11:25:43.170240,15.80940380,.00009255,53.1582,235.6492,76.7921,283.3205,0,U,69209,999,371,.11148948E-2,.225898E-2,0
STARLINK-37402,2026-114AE,2026-06-10T11:24:38.249280,15.80951398,.00008938,53.1583,235.6441,88.3066,271.8059,0,U,69210,999,371,.11294236E-2,.229052E-2,0
STARLINK-37613,2026-115A,2026-06-10T14:00:01.999872,15.59463469,.00018277,97.2848,178.6230,87.3632,92.3880,0,U,69211,999,363,-.35625685E-1,-.245822E-1,0
STARLINK-37713,2026-115B,2026-06-10T14:00:01.999872,15.71503245,.00013952,97.2847,178.6741,108.3767,201.9282,0,U,69212,999,363,-.22988013E-1,-.2558863E-1,0
STARLINK-37716,2026-115C,2026-06-10T14:06:39.652416,15.79488998,.00014904,97.2833,178.6903,200.3383,159.7825,0,U,69213,999,364,-.54915212E-2,-.894261E-2,0
STARLINK-37620,2026-115D,2026-06-10T14:00:01.999872,15.55047398,.0001752,97.2845,178.5979,81.2811,42.5909,0,U,69214,999,363,-.42655722E-1,-.2488294E-1,0
STARLINK-37700,2026-115E,2026-06-10T14:00:01.999872,15.49187597,.00011833,97.2851,178.5107,96.2988,186.8462,0,U,69215,999,363,.38841981E-3,.2109E-3,0
STARLINK-37766,2026-115F,2026-06-10T14:02:02.920992,15.80713400,.00020046,97.2827,178.6943,74.3704,285.7785,0,U,69216,999,364,-.34510628E-3,-.65452E-3,0
STARLINK-37763,2026-115G,2026-06-10T14:00:01.999872,15.76146520,.00014551,97.2845,178.6875,97.3832,245.6488,0,U,69217,999,363,-.19516448E-1,-.2643221E-1,0
STARLINK-37724,2026-115H,2026-06-10T13:59:54.566880,15.80838949,.00013716,97.2830,178.6962,98.1607,261.9817,0,U,69218,999,364,.44747206E-3,.86515E-3,0
STARLINK-37758,2026-115J,2026-06-10T13:55:16.599936,15.80862629,.00022922,97.2826,178.7011,167.5759,192.5566,0,U,69219,999,364,.47881918E-3,.92761E-3,0
STARLINK-37201,2026-115K,2026-06-10T12:25:54.018912,15.80904908,.00012593,97.2831,178.6328,128.9948,231.1433,0,U,69220,999,363,.87293254E-3,.171077E-2,0
STARLINK-37728,2026-115L,2026-06-10T13:53:34.703232,15.80861812,.00013615,97.2830,178.7029,146.9745,213.1609,0,U,69221,999,364,.54529658E-3,.105805E-2,0
STARLINK-37760,2026-115M,2026-06-10T13:57:31.834944,15.80889904,.00015009,97.2830,178.6994,84.8637,275.2803,0,U,69222,999,364,.10461625E-2,.205738E-2,0
STARLINK-37759,2026-115N,2026-06-10T14:00:01.999872,15.76552331,.00013325,97.2844,178.7050,86.3475,297.0735,0,U,69223,999,363,-.18844902E-1,-.254441E-1,0
STARLINK-37725,2026-115P,2026-06-10T13:53:11.648256,15.80805211,.00029767,97.2830,178.7031,192.6059,167.5135,0,U,69224,999,364,.18262638E-2,.364533E-2,0
STARLINK-37770,2026-115Q,2026-06-10T13:54:13.684320,15.80882924,.00011851,97.2832,178.7017,113.1700,246.9693,0,U,69225,999,364,-.5410401E-3,-.102878E-2,0
STARLINK-37736,2026-115R,2026-06-10T12:22:03.616032,15.80879916,.00018849,97.2828,178.6362,53.4470,306.6972,0,U,69226,999,363,.10589348E-2,.20822E-2,0
STARLINK-37737,2026-115S,2026-06-10T13:50:20.404320,15.80843676,.00014846,97.2828,178.7054,85.7956,274.3482,0,U,69227,999,364,.57278573E-3,.111122E-2,0
STARLINK-37618,2026-115T,2026-06-10T14:00:01.999872,15.74959640,.00017767,97.2844,178.7148,72.6594,332.8025,0,U,69228,999,363,-.17799048E-1,-.2282738E-1,0
