STARLINK-37406          
1 69199U 26114T   26161.54691317  .00208180  00000+0  10295-2 0  9997
2 69199  53.1584 235.3832 0001306  64.2086 295.9072 15.80948381  3727
STARLINK-37761          
1 69200U 26114U   26161.54616438  .00141580  00000+0  70808-3 0  9998
2 69200  53.1584 235.3780 0001299  38.8735 321.2381 15.80905584  3725
STARLINK-37754          
1 69201U 26114V   26161.54522251  .00126907  00000+0  63647-3 0  9997
2 69201  53.1584 235.3718 0000943  90.1411 269.9719 15.80894697  3729
STARLINK-37649          
1 69202U 26114W   26161.54466694  .00117569  00000+0  59056-3 0  9999
2 69202  53.1584 235.3682 0001658  74.8712 285.2494 15.80893219  3727
STARLINK-37604          
1 69203U 26114X   26161.54391608  .00166173  00000+0  82809-3 0  9999
2 69203  53.1582 235.3630 0001346  71.2408 288.8761 15.80905837  3722
STARLINK-37669          
1 69204U 26114Y   26161.54316612  .00149582  00000+0  74709-3 0  9997
2 69204  53.1583 235.3575 0001442  72.9281 287.1900 15.80908930  3720
STARLINK-37691          
1 69205U 26114Z   26161.58335648 -.00048356  00000+0 -27618-3 0  9998
2 69205  53.1595 235.1888 0001268  74.4686 139.2740 15.78057773  3750
STARLINK-37671          
1 69206U 26114AA  26161.47844447  .00175831  00000+0  87408-3 0  9999
2 69206  53.1583 235.6655 0001318  67.0035 293.1127 15.80929481  3719
STARLINK-37647          
1 69207U 26114AB  26161.47918995  .00208764  00000+0  10323-2 0  9993
2 69207  53.1584 235.6700 0001177  58.6967 301.4171 15.80948248  3719
STARLINK-37562          
1 69208U 26114AC  26161.60383878 -.00911894  00000+0 -56676-2 0  9993
2 69208  53.1584 235.0223 0003109  11.8122 348.2973 15.78678100  3730
STARLINK-37682          
1 69209U 26114AD  26161.47619410  .00225898  00000+0  11149-2 0  9999
2 69209  53.1582 235.6492 0000925  76.7921 283.3205 15.80940380  3713
STARLINK-37402          
1 69210U 26114AE  26161.47544270  .00229052  00000+0  11294-2 0  9999
2 69210  53.1583 235.6441 0000893  88.3066 271.8059 15.80951398  3713
STARLINK-37613          
1 69211U 26115A   26161.58335648 -.02458220  00000+0 -35626-1 0  9999
2 69211  97.2848 178.6230 0001827  87.3632  92.3880 15.59463469  3637
STARLINK-37713          
1 69212U 26115B   26161.58335648 -.02558863  00000+0 -22988-1 0  9991
2 69212  97.2847 178.6741 0001395 108.3767 201.9282 15.71503245  3632
STARLINK-37716          
1 69213U 26115C   26161.58795894 -.00894261  00000+0 -54915-2 0  9994
2 69213  97.2833 178.6903 0001490 200.3383 159.7825 15.79488998  3640
STARLINK-37620          
1 69214U 26115D   26161.58335648 -.02488294  00000+0 -42656-1 0  9997
2 69214  97.2845 178.5979 0001752  81.2811  42.5909 15.55047398  3639
STARLINK-37700          
1 69215U 26115E   26161.58335648  .00021090  00000+0  38842-3 0  9995
2 69215  97.2851 178.5107 0001183  96.2988 186.8462 15.49187597  3634
STARLINK-37766          
1 69216U 26115F   26161.58475603 -.00065452  00000+0 -34511-3 0  9993
2 69216  97.2827 178.6943 0002004  74.3704 285.7785 15.80713400  3644
STARLINK-37763          
1 69217U 26115G   26161.58335648 -.02643221  00000+0 -19516-1 0  9992
2 69217  97.2845 178.6875 0001455  97.3832 245.6488 15.76146520  3637
STARLINK-37724          
1 69218U 26115H   26161.58327045  .00086515  00000+0  44747-3 0  9994
2 69218  97.2830 178.6962 0001371  98.1607 261.9817 15.80838949  3641
STARLINK-37758          
1 69219U 26115J   26161.58005324  .00092761  00000+0  47882-3 0  9991
2 69219  97.2826 178.7011 0002292 167.5759 192.5566 15.80862629  3647
STARLINK-37201          
1 69220U 26115K   26161.51798633  .00171077  00000+0  87293-3 0  9996
2 69220  97.2831 178.6328 0001259 128.9948 231.1433 15.80904908  3637
STARLINK-37728          
1 69221U 26115L   26161.57887388  .00105805  00000+0  54530-3 0  9993
2 69221  97.2830 178.7029 0001361 146.9745 213.1609 15.80861812  3647
STARLINK-37760          
1 69222U 26115M   26161.58161846  .00205738  00000+0  10462-2 0  9990
2 69222  97.2830 178.6994 0001500  84.8637 275.2803 15.80889904  3640
STARLINK-37759          
1 69223U 26115N   26161.58335648 -.02544410  00000+0 -18845-1 0  9993
2 69223  97.2844 178.7050 0001332  86.3475 297.0735 15.76552331  3631
STARLINK-37725          
1 69224U 26115P   26161.57860704  .00364533  00000+0  18263-2 0  9996
2 69224  97.2830 178.7031 0002976 192.6059 167.5135 15.80805211  3649
STARLINK-37770          
1 69225U 26115Q   26161.57932505 -.00102878  00000+0 -54104-3 0  9995
2 69225  97.2832 178.7017 0001185 113.1700 246.9693 15.80882924  3645
STARLINK-37736          
1 69226U 26115R   26161.51531963  .00208220  00000+0  10589-2 0  9997
2 69226  97.2828 178.6362 0001884  53.4470 306.6972 15.80879916  3639
STARLINK-37737          
1 69227U 26115S   26161.57662505  .00111122  00000+0  57279-3 0  9993
2 69227  97.2828 178.7054 0001484  85.7956 274.3482 15.80843676  3644
STARLINK-37618          
1 69228U 26115T   26161.58335648 -.02282738  00000+0 -17799-1 0  9997
2 69228  97.2844 178.7148 0001776  72.6594 332.8025 15.74959640  3638
